start=new Date('2022-12-01T00:00:00.000Z').valueOf();
sats=[{"FILE":"3675646","RCS_SIZE":"LARGE","TLE_LINE1":"1 51110U 22005G   22334.20191140  .00000667  00000-0  60069-4 0  9993","GP_ID":"219176138","MEAN_MOTION":"15.08827420","PERIAPSIS":"537.947","DECAY_DATE":null,"LAUNCH_DATE":"2022-01-19","ECCENTRICITY":"0.00026550","SITE":"AFETR","MEAN_MOTION_DOT":"0.00000667","ARG_OF_PERICENTER":"34.9149","BSTAR":"0.00006006900000","TLE_LINE2":"2 51110  53.2175 255.8841 0002655  34.9149 325.2017 15.08827420 48407","MEAN_ELEMENT_THEORY":"SGP4","EPHEMERIS_TYPE":"0","MEAN_ANOMALY":"325.2017","REV_AT_EPOCH":"4840","PERIOD":"95.438","TIME_SYSTEM":"UTC","RA_OF_ASC_NODE":"255.8841","CENTER_NAME":"EARTH","COUNTRY_CODE":"US","OBJECT_ID":"2022-005G","INCLINATION":"53.2175","OBJECT_NAME":"STARLINK-3344","ELEMENT_SET_NO":"999","NORAD_CAT_ID":"51110","OBJECT_TYPE":"PAYLOAD","REF_FRAME":"TEME","CLASSIFICATION_TYPE":"U","EPOCH":"2022-11-30T04:50:45.144960","MEAN_MOTION_DDOT":"0.0000000000000","SEMIMAJOR_AXIS":"6917.919","APOAPSIS":"541.621"},{"MEAN_MOTION":"15.08835990","PERIAPSIS":"537.949","RCS_SIZE":"LARGE","FILE":"3675646","TLE_LINE1":"1 51111U 22005H   22334.50734387  .00001037  00000-0  83245-4 0  9996","GP_ID":"219176886","MEAN_MOTION_DOT":"0.00001037","BSTAR":"0.00008324500000","ARG_OF_PERICENTER":"37.7727","TLE_LINE2":"2 51111  53.2170 254.5100 0002615  37.7727 322.3448 15.08835990 48447","MEAN_ELEMENT_THEORY":"SGP4","EPHEMERIS_TYPE":"0","DECAY_DATE":null,"LAUNCH_DATE":"2022-01-19","ECCENTRICITY":"0.00026150","SITE":"AFETR","COUNTRY_CODE":"US","OBJECT_ID":"2022-005H","INCLINATION":"53.2170","OBJECT_NAME":"STARLINK-3173","MEAN_ANOMALY":"322.3448","REV_AT_EPOCH":"4844","PERIOD":"95.438","TIME_SYSTEM":"UTC","RA_OF_ASC_NODE":"254.5100","CENTER_NAME":"EARTH","EPOCH":"2022-11-30T12:10:34.510368","MEAN_MOTION_DDOT":"0.0000000000000","SEMIMAJOR_AXIS":"6917.893","APOAPSIS":"541.567","NORAD_CAT_ID":"51111","ELEMENT_SET_NO":"999","REF_FRAME":"TEME","OBJECT_TYPE":"PAYLOAD","CLASSIFICATION_TYPE":"U"},{"FILE":"3676429","RCS_SIZE":"LARGE","TLE_LINE1":"1 51112U 22005J   22334.79437919  .00001173  00000-0  91818-4 0  9995","GP_ID":"219215945","MEAN_MOTION":"15.08842475","PERIAPSIS":"537.604","DECAY_DATE":null,"LAUNCH_DATE":"2022-01-19","ECCENTRICITY":"0.00030850","SITE":"AFETR","MEAN_MOTION_DOT":"0.00001173","BSTAR":"0.00009181800000","ARG_OF_PERICENTER":"37.0678","TLE_LINE2":"2 51112  53.2160 253.2265 0003085  37.0678 323.0526 15.08842475 48491","MEAN_ELEMENT_THEORY":"SGP4","EPHEMERIS_TYPE":"0","MEAN_ANOMALY":"323.0526","RA_OF_ASC_NODE":"253.2265","CENTER_NAME":"EARTH","TIME_SYSTEM":"UTC","PERIOD":"95.437","REV_AT_EPOCH":"4849","INCLINATION":"53.2160","OBJECT_ID":"2022-005J","COUNTRY_CODE":"US","OBJECT_NAME":"STARLINK-3374","NORAD_CAT_ID":"51112","ELEMENT_SET_NO":"999","OBJECT_TYPE":"PAYLOAD","REF_FRAME":"TEME","CLASSIFICATION_TYPE":"U","EPOCH":"2022-11-30T19:03:54.362016","SEMIMAJOR_AXIS":"6917.873","MEAN_MOTION_DDOT":"0.0000000000000","APOAPSIS":"541.872"},{"SITE":"AFETR","ECCENTRICITY":"0.00026940","LAUNCH_DATE":"2022-01-19","DECAY_DATE":null,"EPHEMERIS_TYPE":"0","MEAN_ELEMENT_THEORY":"SGP4","TLE_LINE2":"2 51113  53.2168 255.6365 0002694  36.6256 323.4920 15.08847430 48408","BSTAR":"0.00029281000000","MEAN_MOTION_DOT":"0.00004376","ARG_OF_PERICENTER":"36.6256","TLE_LINE1":"1 51113U 22005K   22334.25342390  .00004376  00000-0  29281-3 0  9997","GP_ID":"219175389","RCS_SIZE":"LARGE","FILE":"3675646","PERIAPSIS":"537.859","MEAN_MOTION":"15.08847430","CLASSIFICATION_TYPE":"U","OBJECT_TYPE":"PAYLOAD","REF_FRAME":"TEME","NORAD_CAT_ID":"51113","ELEMENT_SET_NO":"999","APOAPSIS":"541.586","MEAN_MOTION_DDOT":"0.0000000000000","SEMIMAJOR_AXIS":"6917.858","EPOCH":"2022-11-30T06:04:55.824960","CENTER_NAME":"EARTH","RA_OF_ASC_NODE":"255.6365","TIME_SYSTEM":"UTC","REV_AT_EPOCH":"4840","PERIOD":"95.437","MEAN_ANOMALY":"323.4920","OBJECT_NAME":"STARLINK-3372","INCLINATION":"53.2168","OBJECT_ID":"2022-005K","COUNTRY_CODE":"US"},{"TIME_SYSTEM":"UTC","RA_OF_ASC_NODE":"253.1933","CENTER_NAME":"EARTH","PERIOD":"95.438","REV_AT_EPOCH":"4849","MEAN_ANOMALY":"326.1722","OBJECT_NAME":"STARLINK-3375","INCLINATION":"53.2176","COUNTRY_CODE":"US","OBJECT_ID":"2022-005L","CLASSIFICATION_TYPE":"U","OBJECT_TYPE":"PAYLOAD","REF_FRAME":"TEME","ELEMENT_SET_NO":"999","NORAD_CAT_ID":"51114","APOAPSIS":"541.690","SEMIMAJOR_AXIS":"6917.881","MEAN_MOTION_DDOT":"0.0000000000000","EPOCH":"2022-11-30T19:14:30.571008","TLE_LINE1":"1 51114U 22005L   22334.80174272  .00001915  00000-0  13840-3 0  9991","GP_ID":"219217445","FILE":"3676429","RCS_SIZE":"LARGE","PERIAPSIS":"537.801","MEAN_MOTION":"15.08839907","SITE":"AFETR","ECCENTRICITY":"0.00028110","LAUNCH_DATE":"2022-01-19","DECAY_DATE":null,"EPHEMERIS_TYPE":"0","MEAN_ELEMENT_THEORY":"SGP4","TLE_LINE2":"2 51114  53.2176 253.1933 0002811  33.9449 326.1722 15.08839907 48496","BSTAR":"0.00013840000000","MEAN_MOTION_DOT":"0.00001915","ARG_OF_PERICENTER":"33.9449"},{"MEAN_ELEMENT_THEORY":"SGP4","EPHEMERIS_TYPE":"0","MEAN_MOTION_DOT":"0.00003793","ARG_OF_PERICENTER":"34.9102","BSTAR":"0.00025625000000","TLE_LINE2":"2 51115  53.2164 253.2886 0002491  34.9102 325.2053 15.08844193 48482","ECCENTRICITY":"0.00024910","SITE":"AFETR","DECAY_DATE":null,"LAUNCH_DATE":"2022-01-19","PERIAPSIS":"538.009","MEAN_MOTION":"15.08844193","TLE_LINE1":"1 51115U 22005M   22334.77598206  .00003793  00000-0  25625-3 0  9995","GP_ID":"219217684","FILE":"3676429","RCS_SIZE":"LARGE","MEAN_MOTION_DDOT":"0.0000000000000","SEMIMAJOR_AXIS":"6917.868","APOAPSIS":"541.456","EPOCH":"2022-11-30T18:37:24.849984","CLASSIFICATION_TYPE":"U","ELEMENT_SET_NO":"999","NORAD_CAT_ID":"51115","OBJECT_TYPE":"PAYLOAD","REF_FRAME":"TEME","OBJECT_NAME":"STARLINK-3397","COUNTRY_CODE":"US","OBJECT_ID":"2022-005M","INCLINATION":"53.2164","REV_AT_EPOCH":"4848","PERIOD":"95.437","RA_OF_ASC_NODE":"253.2886","TIME_SYSTEM":"UTC","CENTER_NAME":"EARTH","MEAN_ANOMALY":"325.2053"},{"MEAN_ANOMALY":"331.3750","REV_AT_EPOCH":"4839","PERIOD":"95.438","RA_OF_ASC_NODE":"255.9094","TIME_SYSTEM":"UTC","CENTER_NAME":"EARTH","COUNTRY_CODE":"US","OBJECT_ID":"2022-005N","INCLINATION":"53.2188","OBJECT_NAME":"STARLINK-3243","REF_FRAME":"TEME","OBJECT_TYPE":"PAYLOAD","NORAD_CAT_ID":"51116","ELEMENT_SET_NO":"999","CLASSIFICATION_TYPE":"U","EPOCH":"2022-11-30T04:40:08.622336","APOAPSIS":"541.890","MEAN_MOTION_DDOT":"0.0000000000000","SEMIMAJOR_AXIS":"6917.907","FILE":"3675646","RCS_SIZE":"LARGE","TLE_LINE1":"1 51116U 22005N   22334.19454424  .00000444  00000-0  46066-4 0  9998","GP_ID":"219175138","MEAN_MOTION":"15.08831427","PERIAPSIS":"537.653","LAUNCH_DATE":"2022-01-19","DECAY_DATE":null,"SITE":"AFETR","ECCENTRICITY":"0.00030620","TLE_LINE2":"2 51116  53.2188 255.9094 0003062  28.7410 331.3750 15.08831427 48395","MEAN_MOTION_DOT":"0.00000444","ARG_OF_PERICENTER":"28.7410","BSTAR":"0.00004606600000","EPHEMERIS_TYPE":"0","MEAN_ELEMENT_THEORY":"SGP4"},{"EPOCH":"2022-11-30T18:16:14.198880","MEAN_MOTION_DDOT":"0.0000000000000","SEMIMAJOR_AXIS":"6917.904","APOAPSIS":"541.936","NORAD_CAT_ID":"51117","ELEMENT_SET_NO":"999","REF_FRAME":"TEME","OBJECT_TYPE":"PAYLOAD","CLASSIFICATION_TYPE":"U","INCLINATION":"53.2190","COUNTRY_CODE":"US","OBJECT_ID":"2022-005P","OBJECT_NAME":"STARLINK-3391","MEAN_ANOMALY":"326.6844","CENTER_NAME":"EARTH","RA_OF_ASC_NODE":"253.3724","TIME_SYSTEM":"UTC","REV_AT_EPOCH":"4848","PERIOD":"95.438","ARG_OF_PERICENTER":"33.4345","MEAN_MOTION_DOT":"0.00000465","BSTAR":"0.00004736000000","TLE_LINE2":"2 51117  53.2190 253.3724 0003132  33.4345 326.6844 15.08832189 48486","MEAN_ELEMENT_THEORY":"SGP4","EPHEMERIS_TYPE":"0","DECAY_DATE":null,"LAUNCH_DATE":"2022-01-19","ECCENTRICITY":"0.00031320","SITE":"AFETR","MEAN_MOTION":"15.08832189","PERIAPSIS":"537.603","RCS_SIZE":"LARGE","FILE":"3676429","TLE_LINE1":"1 51117U 22005P   22334.76127545  .00000465  00000-0  47360-4 0  9994","GP_ID":"219216194"},{"CLASSIFICATION_TYPE":"U","REF_FRAME":"TEME","OBJECT_TYPE":"PAYLOAD","NORAD_CAT_ID":"51118","ELEMENT_SET_NO":"999","APOAPSIS":"541.577","SEMIMAJOR_AXIS":"6917.868","MEAN_MOTION_DDOT":"0.0000000000000","EPOCH":"2022-11-30T12:21:09.771552","REV_AT_EPOCH":"4955","PERIOD":"95.437","CENTER_NAME":"EARTH","RA_OF_ASC_NODE":"254.4682","TIME_SYSTEM":"UTC","MEAN_ANOMALY":"323.5253","OBJECT_NAME":"STARLINK-3394","COUNTRY_CODE":"US","OBJECT_ID":"2022-005Q","INCLINATION":"53.2185","SITE":"AFETR","ECCENTRICITY":"0.00026660","LAUNCH_DATE":"2022-01-19","DECAY_DATE":null,"EPHEMERIS_TYPE":"0","MEAN_ELEMENT_THEORY":"SGP4","TLE_LINE2":"2 51118  53.2185 254.4682 0002666  36.5921 323.5253 15.08844063 49554","MEAN_MOTION_DOT":"0.00000989","BSTAR":"0.00008023800000","ARG_OF_PERICENTER":"36.5921","TLE_LINE1":"1 51118U 22005Q   22334.51469643  .00000989  00000-0  80238-4 0  9998","GP_ID":"219185615","FILE":"3676085","RCS_SIZE":"LARGE","PERIAPSIS":"537.889","MEAN_MOTION":"15.08844063"},{"MEAN_MOTION_DOT":"0.00001231","ARG_OF_PERICENTER":"33.3427","BSTAR":"0.00009550900000","TLE_LINE2":"2 51119  53.2166 256.0674 0002623  33.3427 326.7730 15.08823531 48395","MEAN_ELEMENT_THEORY":"SGP4","EPHEMERIS_TYPE":"0","DECAY_DATE":null,"LAUNCH_DATE":"2022-01-19","ECCENTRICITY":"0.00026230","SITE":"AFETR","MEAN_MOTION":"15.08823531","PERIAPSIS":"537.981","RCS_SIZE":"LARGE","FILE":"3675646","TLE_LINE1":"1 51119U 22005R   22334.16143238  .00001231  00000-0  95509-4 0  9997","GP_ID":"219176887","EPOCH":"2022-11-30T03:52:27.757632","SEMIMAJOR_AXIS":"6917.931","MEAN_MOTION_DDOT":"0.0000000000000","APOAPSIS":"541.610","ELEMENT_SET_NO":"999","NORAD_CAT_ID":"51119","OBJECT_TYPE":"PAYLOAD","REF_FRAME":"TEME","CLASSIFICATION_TYPE":"U","INCLINATION":"53.2166","OBJECT_ID":"2022-005R","COUNTRY_CODE":"US","OBJECT_NAME":"STARLINK-3390","MEAN_ANOMALY":"326.7730","TIME_SYSTEM":"UTC","RA_OF_ASC_NODE":"256.0674","CENTER_NAME":"EARTH","PERIOD":"95.439","REV_AT_EPOCH":"4839"}];
